[ {"name": "STARLINK-6134", "line1": "1 57110U 23090K   26110.18819753  .00000770  00000+0  38376-4 0  9994", "line2": "2 57110  43.0014  46.8028 0001178 263.6266  96.4451 15.26740774156682"}, {"name": "STARLINK-6140", "line1": "1 57111U 23090L   26110.16668980  .00029144  00000+0  10923-2 0  9999", "line2": "2 57111  43.0009  47.0426 0001046 288.7980 261.8778 15.26728879  5761"}, {"name": "STARLINK-6141", "line1": "1 57112U 23090M   26110.16668980  .00106340  00000+0  39529-2 0  9997", "line2": "2 57112  43.0010  47.2875 0001145 314.8495 134.3433 15.26439939  5821"}, {"name": "STARLINK-6142", "line1": "1 57113U 23090N   26110.16668980  .00029281  00000+0  10975-2 0  9990", "line2": "2 57113  43.0008  47.0532 0000888 275.7396 270.9654 15.26723000  5664"}, {"name": "STARLINK-6125", "line1": "1 57114U 23090P   26110.16668980  .00028931  00000+0  10848-2 0  9991", "line2": "2 57114  43.0008  46.8082 0001193 270.5393  20.2658 15.26715076  5666"}, {"name": "STARLINK-6085", "line1": "1 57115U 23090Q   26110.16737887  .00005330  00000+0  29324-3 0  9993", "line2": "2 57115  43.0011  33.9295 0018425 111.0720 249.2099 15.14770474156831"}, {"name": "STARLINK-6129", "line1": "1 57116U 23090R   26110.17050397  .00000793  00000+0  39262-4 0  9990", "line2": "2 57116  43.0029  46.6707 0001214 273.0003  87.0709 15.26737930156683"}, {"name": "STARLINK-6148", "line1": "1 57117U 23090S   26110.17856969  .00001535  00000+0  66920-4 0  9996", "line2": "2 57117  43.0016  46.7246 0001319 278.7526  81.3176 15.26720352156671"}, {"name": "STARLINK-6150", "line1": "1 57119U 23090U   26110.16668980  .01046023  00000+0  37434-1 0  9998", "line2": "2 57119  43.0010  47.3169 0001064 301.6670 132.1752 15.25627307  5775"}, {"name": "STARLINK-6147", "line1": "1 57120U 23090V   26110.16668980  .00065432  00000+0  24332-2 0  9998", "line2": "2 57120  43.0010  47.1467 0001546 291.2925 213.1160 15.26661211  5774"}, {"name": "STARLINK-6152", "line1": "1 57121U 23090W   26110.16668980  .00025714  00000+0  96531-3 0  9999", "line2": "2 57121  43.0016  46.6400 0001610 276.2766  82.9762 15.26728212  5821"}, {"name": "STARLINK-6149", "line1": "1 57122U 23090X   26110.16668980  .01060373  00000+0  39058-1 0  9990", "line2": "2 57122  43.0008  47.4570 0001858 285.6146  88.4821 15.24630435  5824"}, {"name": "STARLINK-6154", "line1": "1 57123U 23090Y   26110.16668980  .00105936  00000+0  40592-2 0  9991", "line2": "2 57123  43.0009  47.0791 0000556 314.7457 217.0349 15.25435239  5821"}, {"name": "STARLINK-6146", "line1": "1 57124U 23090Z   26110.16668980  .00016742  00000+0  63275-3 0  9992", "line2": "2 57124  43.0076  46.9534 0001167 284.1632 302.6358 15.26722161  5828"}, {"name": "STARLINK-6100", "line1": "1 57125U 23090AA  26110.07147082 -.00000324  00000+0 -22666-5 0  9990", "line2": "2 57125  43.0032  29.5112 0000548 244.5058 115.5737 15.27572856156682"}, {"name": "STARLINK-6167", "line1": "1 57126U 23090AB  26110.16668980  .01270043  00000+0  46461-1 0  9997", "line2": "2 57126  43.0008  47.6814 0001695 260.7328  17.1681 15.24347653  5826"}, {"name": "STARLINK-6165", "line1": "1 57127U 23090AC  26110.16668980  .00066683  00000+0  24792-2 0  9994", "line2": "2 57127  43.0007  47.0517 0001070 288.2873 253.4229 15.26660286  5721"}, {"name": "STARLINK-6163", "line1": "1 57128U 23090AD  26110.16668980  .00027862  00000+0  10449-2 0  9995", "line2": "2 57128  43.0009  46.8206 0001168 272.4708   9.6876 15.26724928  5820"}, {"name": "STARLINK-6170", "line1": "1 57129U 23090AE  26110.04682628  .00000241  00000+0  18671-4 0  9997", "line2": "2 57129  43.0049  30.1932 0001806 267.9468  92.1176 15.26742142156676"}, {"name": "STARLINK-6172", "line1": "1 57130U 23090AF  26110.16668980  .00027327  00000+0  10250-2 0  9994", "line2": "2 57130  43.0009  46.7401 0001092 288.2162  27.8329 15.26729443  5679"}, {"name": "STARLINK-6162", "line1": "1 57131U 23090AG  26110.19065921  .00053624  00000+0  19609-2 0  9990", "line2": "2 57131  43.0034  28.6935 0001232 278.0320  82.0392 15.27296903156703"}, {"name": "STARLINK-6128", "line1": "1 57132U 23090AH  26110.16668980  .00025948  00000+0  10563-2 0  9990", "line2": "2 57132  43.0010  46.9245 0001254 279.0701 318.5612 15.24024119  5770"}, {"name": "STARLINK-6143", "line1": "1 57133U 23090AJ  26110.12751009 -.00000854  00000+0 -22167-4 0  9998", "line2": "2 57133  43.0051  29.0767 0001195 265.6805  94.3910 15.26741243156691"}, {"name": "STARLINK-6133", "line1": "1 57134U 23090AK  26110.18685010 -.00004723  00000+0 -16235-3 0  9990", "line2": "2 57134  43.0031  28.6632 0001061 356.2637   3.8206 15.27552786156706"}, {"name": "STARLINK-6127", "line1": "1 57135U 23090AL  26110.11503519  .00000270  00000+0  19736-4 0  9998", "line2": "2 57135  43.0040  28.9858 0001356 268.8879  91.1817 15.26744112156694"}, {"name": "STARLINK-6112", "line1": "1 57136U 23090AM  26109.46857229  .00001900  00000+0  80491-4 0  9992", "line2": "2 57136  43.0027  32.7334 0001867 274.9702  85.0936 15.26752518156617"}, {"name": "STARLINK-5347", "line1": "1 57137U 23090AN  26110.16668980  .00053311  00000+0  19342-2 0  9994", "line2": "2 57137  43.0022  28.7630 0001185 265.6099 350.6113 15.27556403  5837"}, {"name": "STARLINK-5336", "line1": "1 57138U 23090AP  26109.92597528 -.00000397  00000+0 -50939-5 0  9994", "line2": "2 57138  43.0021  30.1455 0001675 283.7254  76.3410 15.26734879156661"}, {"name": "STARLINK-5355", "line1": "1 57139U 23090AQ  26110.05733240 -.00003143  00000+0 -10475-3 0  9995", "line2": "2 57139  43.0040  29.4099 0001403 257.3214 102.7481 15.27577348156681"}, {"name": "STARLINK-5357", "line1": "1 57141U 23090AS  26110.17601229  .00001001  00000+0  47011-4 0  9998", "line2": "2 57141  43.0046  28.5842 0001511 269.1734  90.8944 15.26741323156703"}, {"name": "STARLINK-5361", "line1": "1 57142U 23090AT  26110.12786485  .00001897  00000+0  78427-4 0  9990", "line2": "2 57142  43.0027  29.0735 0000852 277.2964  82.7791 15.27582823156699"}, {"name": "STARLINK-5358", "line1": "1 57143U 23090AU  26110.05561463 -.00001004  00000+0 -27763-4 0  9999", "line2": "2 57143  43.0036  29.3968 0001216 272.3307  87.7405 15.26744695156685"}, {"name": "STARLINK-5150", "line1": "1 57144U 23090AV  26110.18719650  .00000697  00000+0  35678-4 0  9996", "line2": "2 57144  43.0034  28.6642 0001331 272.0085  88.0614 15.26741462156701"}, {"name": "STARLINK-5768", "line1": "1 57145U 23090AW  26110.15741255 -.00000954  00000+0 -25150-4 0  9992", "line2": "2 57145  43.0043  29.2932 0001019 292.9552  67.1192 15.27579673156695"}, {"name": "STARLINK-5791", "line1": "1 57146U 23090AX  26110.07018645  .00001559  00000+0  66144-4 0  9992", "line2": "2 57146  43.0026  29.4999 0001278 270.0128  90.0577 15.27584906156681"}, {"name": "STARLINK-5765", "line1": "1 57147U 23090AY  26110.00003471 -.00008552  00000+0 -30165-3 0  9992", "line2": "2 57147  43.0048  30.3152 0001456 275.6231 241.3850 15.27574045  5830"}, {"name": "STARLINK-5788", "line1": "1 57148U 23090AZ  26109.96034414  .00000034  00000+0  10958-4 0  9991", "line2": "2 57148  43.0065  30.3878 0001210 258.7768 101.2947 15.26741727156661"}, {"name": "STARLINK-5778", "line1": "1 57149U 23090BA  26110.10391522 -.00000286  00000+0 -60068-5 0  9995", "line2": "2 57149  43.0043  10.5071 0001061 281.6685  78.4038 15.02857625157093"}, {"name": "STARLINK-5780", "line1": "1 57150U 23090BB  26110.14436113  .00000069  00000+0  17055-4 0  9991", "line2": "2 57150  43.0031  33.4556 0001247 277.9259  82.1445 15.11067567156838"}, {"name": "STARLINK-5776", "line1": "1 57151U 23090BC  26108.19074426  .00481686  00000+0  16281-1 0  9994", "line2": "2 57151  43.0039  40.3262 0000740 279.4960  80.5808 15.27816669156580"}, {"name": "STARLINK-6164", "line1": "1 57152U 23090BD  26110.13942740 -.00001014  00000+0 -27344-4 0  9995", "line2": "2 57152  43.0028  29.1555 0001068 273.8412  86.2317 15.27570841156883"}, {"name": "STARLINK-5879", "line1": "1 57153U 23090BE  26110.08910433  .00000100  00000+0  13680-4 0  9995", "line2": "2 57153  43.0044  18.3330 0001345 270.6996  89.3701 15.25908485156500"}, {"name": "STARLINK-6106", "line1": "1 57154U 23090BF  26109.50487688  .00001486  00000+0  65071-4 0  9991", "line2": "2 57154  43.0055  32.9938 0000955 278.4795  81.5948 15.26732332156782"}, {"name": "STARLINK-6108", "line1": "1 57155U 23090BG  26110.16744655  .00005026  00000+0  19704-3 0  9991", "line2": "2 57155  43.0066  29.3654 0001686 264.2093  95.8566 15.26719271156888"}, {"name": "STARLINK-6137", "line1": "1 57156U 23090BH  26110.17001419  .00000318  00000+0  21531-4 0  9998", "line2": "2 57156  43.0062  29.3824 0001540 233.3312 126.7398 15.26745433156880"}, {"name": "STARLINK-5525", "line1": "1 57218U 23094A   26110.18241332 -.00001037  00000+0 -28996-4 0  9995", "line2": "2 57218  43.0039 156.1967 0001246 280.7539  79.3172 15.26738465153461"}, {"name": "STARLINK-5520", "line1": "1 57219U 23094B   26110.12004898  .00000334  00000+0  22610-4 0  9998", "line2": "2 57219  43.0031 159.9834 0001401 269.9456  90.1235 15.25908565153413"}, {"name": "STARLINK-5880", "line1": "1 57220U 23094C   26110.10724703  .00000210  00000+0  17500-4 0  9997", "line2": "2 57220  43.0023 159.8874 0000863 278.7499  81.3255 15.26741741153411"}, {"name": "STARLINK-5875", "line1": "1 57221U 23094D   26109.54016664  .00000245  00000+0  18822-4 0  9990", "line2": "2 57221  43.0042 163.3768 0002049 281.8754  78.1867 15.26741257153327"}, {"name": "STARLINK-5870", "line1": "1 57222U 23094E   26110.17482402  .00001022  00000+0  46664-4 0  9998", "line2": "2 57222  43.0040 156.1331 0001473 270.0922  89.9760 15.27581788154098"}, {"name": "STARLINK-5519", "line1": "1 57223U 23094F   26110.16225821 -.00000708  00000+0 -16711-4 0  9990", "line2": "2 57223  43.0010 159.4462 0000951 274.8112  85.2631 15.26738931153425"}, {"name": "STARLINK-5983", "line1": "1 57224U 23094G   26110.17867160 -.00008518  00000+0 -30010-3 0  9994", "line2": "2 57224  43.0038 156.1595 0000488 291.4155  68.6645 15.27608814153465"}]